start=new Date('2023-05-17T00:00:00.000Z').valueOf();
sats=[{"CENTER_NAME":"EARTH","LAUNCH_DATE":"2023-01-19","ECCENTRICITY":"0.00035280","EPHEMERIS_TYPE":"0","MEAN_MOTION_DOT":"0.00011354","OBJECT_TYPE":"PAYLOAD","RA_OF_ASC_NODE":"99.2891","SITE":"AFWTR","REV_AT_EPOCH":"130","MEAN_MOTION":"15.51228421","APOAPSIS":"415.536","OBJECT_ID":"2023-010AY","FILE":"3909742","EPOCH":"2023-05-16T22:00:00.999936","GP_ID":"232000785","INCLINATION":"70.0003","BSTAR":"0.00019579000000","TLE_LINE1":"1 55315U 23010AY  23136.91667824  .00011354  00000-0  19579-3 0  9991","PERIAPSIS":"410.744","SEMIMAJOR_AXIS":"6791.275","NORAD_CAT_ID":"55315","REF_FRAME":"TEME","MEAN_ELEMENT_THEORY":"SGP4","TIME_SYSTEM":"UTC","ELEMENT_SET_NO":"999","PERIOD":"92.830","CLASSIFICATION_TYPE":"U","DECAY_DATE":null,"RCS_SIZE":"LARGE","ARG_OF_PERICENTER":"264.3050","MEAN_ANOMALY":"49.1922","TLE_LINE2":"2 55315  70.0003  99.2891 0003528 264.3050  49.1922 15.51228421  1309","COUNTRY_CODE":"US","MEAN_MOTION_DDOT":"0.0000000000000","OBJECT_NAME":"STARLINK-4623"},{"ARG_OF_PERICENTER":"273.4154","TLE_LINE2":"2 55316  69.9991 100.7549 0003137 273.4154  86.6682 15.69925601 18831","MEAN_ANOMALY":"86.6682","COUNTRY_CODE":"US","OBJECT_NAME":"STARLINK-5257","MEAN_MOTION_DDOT":"0.0000000000000","TIME_SYSTEM":"UTC","REF_FRAME":"TEME","MEAN_ELEMENT_THEORY":"SGP4","ELEMENT_SET_NO":"999","PERIOD":"91.724","DECAY_DATE":null,"RCS_SIZE":"LARGE","CLASSIFICATION_TYPE":"U","GP_ID":"231975213","PERIAPSIS":"356.998","TLE_LINE1":"1 55316U 23010AZ  23136.31745926  .00000471  00000-0  56875-5 0  9996","INCLINATION":"69.9991","BSTAR":"0.00000568750000","NORAD_CAT_ID":"55316","SEMIMAJOR_AXIS":"6737.247","ECCENTRICITY":"0.00031370","LAUNCH_DATE":"2023-01-19","CENTER_NAME":"EARTH","EPHEMERIS_TYPE":"0","SITE":"AFWTR","REV_AT_EPOCH":"1883","MEAN_MOTION_DOT":"0.00000471","OBJECT_TYPE":"PAYLOAD","RA_OF_ASC_NODE":"100.7549","APOAPSIS":"361.225","OBJECT_ID":"2023-010AZ","FILE":"3909728","EPOCH":"2023-05-16T07:37:08.480064","MEAN_MOTION":"15.69925601"},{"CLASSIFICATION_TYPE":"U","RCS_SIZE":"LARGE","DECAY_DATE":null,"PERIOD":"91.724","ELEMENT_SET_NO":"999","MEAN_ELEMENT_THEORY":"SGP4","REF_FRAME":"TEME","TIME_SYSTEM":"UTC","MEAN_MOTION_DDOT":"0.0000000000000","OBJECT_NAME":"STARLINK-5265","COUNTRY_CODE":"US","MEAN_ANOMALY":"100.4507","TLE_LINE2":"2 55317  69.9977 100.6402 0002748 259.6379 100.4507 15.69924981 18836","ARG_OF_PERICENTER":"259.6379","MEAN_MOTION":"15.69924981","FILE":"3909166","EPOCH":"2023-05-16T06:54:05.953824","APOAPSIS":"360.965","OBJECT_ID":"2023-010BA","RA_OF_ASC_NODE":"100.6402","OBJECT_TYPE":"PAYLOAD","MEAN_MOTION_DOT":"-0.00000367","REV_AT_EPOCH":"1883","SITE":"AFWTR","EPHEMERIS_TYPE":"0","CENTER_NAME":"EARTH","LAUNCH_DATE":"2023-01-19","ECCENTRICITY":"0.00027480","SEMIMAJOR_AXIS":"6737.249","NORAD_CAT_ID":"55317","BSTAR":"-0.00000128280000","INCLINATION":"69.9977","TLE_LINE1":"1 55317U 23010BA  23136.28756891 -.00000367  00000-0 -12828-5 0  9992","PERIAPSIS":"357.262","GP_ID":"231936313"},{"ARG_OF_PERICENTER":"266.7671","MEAN_ANOMALY":"93.3189","TLE_LINE2":"2 55318  69.9999  98.8486 0002940 266.7671  93.3189 15.69924791 20129","COUNTRY_CODE":"US","MEAN_MOTION_DDOT":"0.0000000000000","OBJECT_NAME":"STARLINK-5180","MEAN_ELEMENT_THEORY":"SGP4","REF_FRAME":"TEME","TIME_SYSTEM":"UTC","PERIOD":"91.724","ELEMENT_SET_NO":"999","CLASSIFICATION_TYPE":"U","RCS_SIZE":"LARGE","DECAY_DATE":null,"GP_ID":"232000036","BSTAR":"0.00000989690000","INCLINATION":"69.9999","PERIAPSIS":"357.133","TLE_LINE1":"1 55318U 23010BB  23136.92452415  .00000978  00000-0  98969-5 0  9995","SEMIMAJOR_AXIS":"6737.249","NORAD_CAT_ID":"55318","CENTER_NAME":"EARTH","LAUNCH_DATE":"2023-01-19","ECCENTRICITY":"0.00029400","EPHEMERIS_TYPE":"0","OBJECT_TYPE":"PAYLOAD","RA_OF_ASC_NODE":"98.8486","MEAN_MOTION_DOT":"0.00000978","REV_AT_EPOCH":"2012","SITE":"AFWTR","MEAN_MOTION":"15.69924791","EPOCH":"2023-05-16T22:11:18.886560","FILE":"3909742","OBJECT_ID":"2023-010BB","APOAPSIS":"361.095"},{"GP_ID":"232000286","SEMIMAJOR_AXIS":"6737.266","NORAD_CAT_ID":"55319","BSTAR":"0.00001965500000","INCLINATION":"69.9980","TLE_LINE1":"1 55319U 23010BC  23136.92442096  .00002151  00000-0  19655-4 0  9999","PERIAPSIS":"357.038","EPHEMERIS_TYPE":"0","CENTER_NAME":"EARTH","LAUNCH_DATE":"2023-01-19","ECCENTRICITY":"0.00031060","MEAN_MOTION":"15.69919042","FILE":"3909742","EPOCH":"2023-05-16T22:11:09.970944","APOAPSIS":"361.223","OBJECT_ID":"2023-010BC","RA_OF_ASC_NODE":"98.8498","OBJECT_TYPE":"PAYLOAD","MEAN_MOTION_DOT":"0.00002151","REV_AT_EPOCH":"2012","SITE":"AFWTR","MEAN_ANOMALY":"84.2820","TLE_LINE2":"2 55319  69.9980  98.8498 0003106 275.8022  84.2820 15.69919042 20123","ARG_OF_PERICENTER":"275.8022","MEAN_MOTION_DDOT":"0.0000000000000","OBJECT_NAME":"STARLINK-5196","COUNTRY_CODE":"US","MEAN_ELEMENT_THEORY":"SGP4","REF_FRAME":"TEME","TIME_SYSTEM":"UTC","CLASSIFICATION_TYPE":"U","RCS_SIZE":"LARGE","DECAY_DATE":null,"PERIOD":"91.724","ELEMENT_SET_NO":"999"},{"EPHEMERIS_TYPE":"0","LAUNCH_DATE":"2023-01-26","CENTER_NAME":"EARTH","ECCENTRICITY":"0.00012160","MEAN_MOTION":"15.02525959","EPOCH":"2023-05-16T16:03:40.133664","FILE":"3909742","OBJECT_ID":"2023-013A","APOAPSIS":"559.956","OBJECT_TYPE":"PAYLOAD","RA_OF_ASC_NODE":"126.7197","MEAN_MOTION_DOT":"-0.00000427","REV_AT_EPOCH":"1814","SITE":"AFETR","GP_ID":"232000287","SEMIMAJOR_AXIS":"6937.247","NORAD_CAT_ID":"55331","BSTAR":"-0.00001651300000","INCLINATION":"43.0028","PERIAPSIS":"558.269","TLE_LINE1":"1 55331U 23013A   23136.66921451 -.00000427  00000-0 -16513-4 0  9990","MEAN_ELEMENT_THEORY":"SGP4","REF_FRAME":"TEME","TIME_SYSTEM":"UTC","CLASSIFICATION_TYPE":"U","RCS_SIZE":"LARGE","DECAY_DATE":null,"PERIOD":"95.839","ELEMENT_SET_NO":"999","MEAN_ANOMALY":"87.3871","TLE_LINE2":"2 55331  43.0028 126.7197 0001216 272.6832  87.3871 15.02525959 18140","ARG_OF_PERICENTER":"272.6832","MEAN_MOTION_DDOT":"0.0000000000000","OBJECT_NAME":"STARLINK-5492","COUNTRY_CODE":"US"},{"TLE_LINE2":"2 55332  43.0028 113.6213 0000893 258.5517 101.5226 15.04484586 17210","MEAN_ANOMALY":"101.5226","ARG_OF_PERICENTER":"258.5517","OBJECT_NAME":"STARLINK-5491","MEAN_MOTION_DDOT":"0.0000000000000","COUNTRY_CODE":"US","TIME_SYSTEM":"UTC","REF_FRAME":"TEME","MEAN_ELEMENT_THEORY":"SGP4","DECAY_DATE":null,"RCS_SIZE":"LARGE","CLASSIFICATION_TYPE":"U","ELEMENT_SET_NO":"999","PERIOD":"95.714","GP_ID":"232001039","NORAD_CAT_ID":"55332","SEMIMAJOR_AXIS":"6931.225","TLE_LINE1":"1 55332U 23013B   23136.65915696 -.00000912  00000-0 -49531-4 0  9999","PERIAPSIS":"552.471","INCLINATION":"43.0028","BSTAR":"-0.00004953100000","EPHEMERIS_TYPE":"0","ECCENTRICITY":"0.00008930","LAUNCH_DATE":"2023-01-26","CENTER_NAME":"EARTH","OBJECT_ID":"2023-013B","APOAPSIS":"553.709","EPOCH":"2023-05-16T15:49:11.161344","FILE":"3909742","MEAN_MOTION":"15.04484586","SITE":"AFETR","REV_AT_EPOCH":"1721","MEAN_MOTION_DOT":"-0.00000912","OBJECT_TYPE":"PAYLOAD","RA_OF_ASC_NODE":"113.6213"},{"ELEMENT_SET_NO":"999","PERIOD":"95.838","RCS_SIZE":"LARGE","DECAY_DATE":null,"CLASSIFICATION_TYPE":"U","TIME_SYSTEM":"UTC","MEAN_ELEMENT_THEORY":"SGP4","REF_FRAME":"TEME","COUNTRY_CODE":"US","OBJECT_NAME":"STARLINK-5493","MEAN_MOTION_DDOT":"0.0000000000000","ARG_OF_PERICENTER":"267.3497","TLE_LINE2":"2 55333  43.0027 127.7605 0001330 267.3497  92.7193 15.02537938 17035","MEAN_ANOMALY":"92.7193","REV_AT_EPOCH":"1703","SITE":"AFETR","OBJECT_TYPE":"PAYLOAD","RA_OF_ASC_NODE":"127.7605","MEAN_MOTION_DOT":"0.00000776","EPOCH":"2023-05-16T11:08:27.758688","FILE":"3909472","APOAPSIS":"559.998","OBJECT_ID":"2023-013C","MEAN_MOTION":"15.02537938","ECCENTRICITY":"0.00013300","CENTER_NAME":"EARTH","LAUNCH_DATE":"2023-01-26","EPHEMERIS_TYPE":"0","PERIAPSIS":"558.153","TLE_LINE1":"1 55333U 23013C   23136.46421017  .00000776  00000-0  72530-4 0  9999","BSTAR":"0.00007253000000","INCLINATION":"43.0027","NORAD_CAT_ID":"55333","SEMIMAJOR_AXIS":"6937.211","GP_ID":"231967813"},{"TLE_LINE2":"2 55334  43.0025 122.5025 0001321 263.7247  96.3444 15.01720613 17117","MEAN_ANOMALY":"96.3444","ARG_OF_PERICENTER":"263.7247","OBJECT_NAME":"STARLINK-5652","MEAN_MOTION_DDOT":"0.0000000000000","COUNTRY_CODE":"US","TIME_SYSTEM":"UTC","REF_FRAME":"TEME","MEAN_ELEMENT_THEORY":"SGP4","DECAY_DATE":null,"RCS_SIZE":"LARGE","CLASSIFICATION_TYPE":"U","ELEMENT_SET_NO":"999","PERIOD":"95.890","GP_ID":"232000537","NORAD_CAT_ID":"55334","SEMIMAJOR_AXIS":"6939.727","TLE_LINE1":"1 55334U 23013D   23136.68216763 -.00000609  00000-0 -30757-4 0  9996","PERIAPSIS":"560.676","INCLINATION":"43.0025","BSTAR":"-0.00003075700000","EPHEMERIS_TYPE":"0","ECCENTRICITY":"0.00013210","LAUNCH_DATE":"2023-01-26","CENTER_NAME":"EARTH","APOAPSIS":"562.509","OBJECT_ID":"2023-013D","EPOCH":"2023-05-16T16:22:19.283232","FILE":"3909742","MEAN_MOTION":"15.01720613","SITE":"AFETR","REV_AT_EPOCH":"1711","MEAN_MOTION_DOT":"-0.00000609","RA_OF_ASC_NODE":"122.5025","OBJECT_TYPE":"PAYLOAD"},{"TLE_LINE1":"1 55335U 23013E   23136.46199509  .00002016  00000-0  16424-3 0  9997","PERIAPSIS":"557.984","INCLINATION":"43.0028","BSTAR":"0.00016424000000","NORAD_CAT_ID":"55335","SEMIMAJOR_AXIS":"6937.212","GP_ID":"231968809","SITE":"AFETR","REV_AT_EPOCH":"1703","MEAN_MOTION_DOT":"0.00002016","OBJECT_TYPE":"PAYLOAD","RA_OF_ASC_NODE":"127.7432","APOAPSIS":"560.169","OBJECT_ID":"2023-013E","EPOCH":"2023-05-16T11:05:16.375776","FILE":"3909472","MEAN_MOTION":"15.02537611","ECCENTRICITY":"0.00015750","CENTER_NAME":"EARTH","LAUNCH_DATE":"2023-01-26","EPHEMERIS_TYPE":"0","COUNTRY_CODE":"US","OBJECT_NAME":"STARLINK-5660","MEAN_MOTION_DDOT":"0.0000000000000","ARG_OF_PERICENTER":"273.1546","TLE_LINE2":"2 55335  43.0028 127.7432 0001575 273.1546  86.9117 15.02537611 17036","MEAN_ANOMALY":"86.9117","ELEMENT_SET_NO":"999","PERIOD":"95.838","DECAY_DATE":null,"RCS_SIZE":"LARGE","CLASSIFICATION_TYPE":"U","TIME_SYSTEM":"UTC","REF_FRAME":"TEME","MEAN_ELEMENT_THEORY":"SGP4"}];
